NORAD_CAT_ID,OBJECT_NAME,OBJECT_TYPE,EPOCH,MEAN_MOTION,ECCENTRICITY,INCLINATION,RA_OF_ASC_NODE,ARG_OF_PERICENTER,MEAN_ANOMALY,BSTAR,MEAN_MOTION_DOT,MEAN_MOTION_DDOT,TLE_LINE0,TLE_LINE1,TLE_LINE2,SEMIMAJOR_AXIS,PERIOD,APOGEE,PERIGEE,DECAYED
52311.0,STARLINK-3750,PAYLOAD,2022-08-07 14:00:01,15.07215151,0.0002116,53.2126,210.1699,42.4144,359.7167,-0.0019011,-0.00029113,0.0,0 STARLINK-3750,1 52311U 22041BC  22219.58334491 -.00029113  00000-0 -19011-2 0  9996,2 52311  53.2126 210.1699 0002116  42.4144 359.7167 15.07215151  1300,6922.851,95.54,546.181,543.251,0.0
52311.0,STARLINK-3750,PAYLOAD,2022-08-07 22:00:00,15.0718894,0.0002015,53.2127,208.6759,48.42100000000001,3.3482,0.0025443,0.00038642,0.0,0 STARLINK-3750,1 52311U 22041BC  22219.91667824  .00038642  00000-0  25443-2 0  9993,2 52311  53.2127 208.6759 0002015  48.4210   3.3482 15.07188940  1305,6922.932,95.542,546.192,543.4019999999998,0.0
52311.0,STARLINK-3750,PAYLOAD,2022-08-08 06:00:00,15.07215391,0.0002224,53.2128,207.185,45.445,15.9564,-0.00084492,-0.00013126,0.0,0 STARLINK-3750,1 52311U 22041BC  22220.25001157 -.00013126  00000-0 -84492-3 0  9995,2 52311  53.2128 207.1850 0002224  45.4450  15.9564 15.07215391 18182,6922.851,95.54,546.255,543.1759999999998,0.0
52311.0,STARLINK-3750,PAYLOAD,2022-08-08 14:00:01,15.07233259,0.0002186999999999,53.2128,205.6916,44.0584,27.0406,-0.0020280999999999,-0.00031046,0.0,0 STARLINK-3750,1 52311U 22041BC  22220.58335648 -.00031046  00000-0 -20281-2 0  9992,2 52311  53.2128 205.6916 0002187  44.0584  27.0406 15.07233259  1307,6922.795999999999,95.539,546.175,543.1469999999998,0.0
52311.0,STARLINK-3750,PAYLOAD,2022-08-08 22:00:00,15.07210435,0.0002039,53.213,204.1977,48.9571,31.7377,-2.8724e-05,-7.21e-06,0.0,0 STARLINK-3750,1 52311U 22041BC  22220.91667824 -.00000721  00000-0 -28724-4 0  9991,2 52311  53.2130 204.1977 0002039  48.9571  31.7377 15.07210435 18281,6922.866,95.541,546.1419999999998,543.319,0.0
52311.0,STARLINK-3750,PAYLOAD,2022-08-09 14:00:01,15.07231433,0.0002126,53.213,201.2134,43.413,56.537,-0.0048078,-0.00072779,0.0,0 STARLINK-3750,1 52311U 22041BC  22221.58334491 -.00072779  00000-0 -48078-2 0  9990,2 52311  53.2130 201.2134 0002126  43.4130  56.5370 15.07231433  1306,6922.802,95.539,546.138,543.195,0.0
52311.0,STARLINK-3750,PAYLOAD,2022-08-09 22:00:00,15.07174513,0.0001959,53.2133,199.7196,47.8531,61.7339,0.0018636,0.00028174,0.0,0 STARLINK-3750,1 52311U 22041BC  22221.91667824  .00028174  00000-0  18636-2 0  9991,2 52311  53.2133 199.7196 0001959  47.8531  61.7339 15.07174513  1302,6922.976,95.543,546.197,543.485,0.0
52311.0,STARLINK-3750,PAYLOAD,2022-08-10 14:00:01,15.07207218,0.0002076,53.2131,196.7352,44.4344,84.3665,-0.0020109,-0.00030765,0.0,0 STARLINK-3750,1 52311U 22041BC  22222.58334491 -.00030765  00000-0 -20109-2 0  9995,2 52311  53.2131 196.7352 0002076  44.4344  84.3665 15.07207218  1309,6922.876,95.541,546.178,543.303,0.0
52311.0,STARLINK-3750,PAYLOAD,2022-08-10 16:00:00,15.07196299,0.0002002,53.2133,196.3616,45.7926,175.4169,-0.00068366,-0.00010673,0.0,0 STARLINK-3750,1 52311U 22041BC  22222.66667824 -.00010673  00000-0 -68366-3 0  9997,2 52311  53.2133 196.3616 0002002  45.7926 175.4169 15.07196299 18540,6922.909000000002,95.542,546.16,543.388,0.0
52311.0,STARLINK-3750,PAYLOAD,2022-08-10 22:00:00,15.07190854,0.0001979,53.2134,195.2417,50.0984,88.3209,0.0013272,0.00019969,0.0,0 STARLINK-3750,1 52311U 22041BC  22222.91667824  .00019969  00000-0  13272-2 0  9995,2 52311  53.2134 195.2417 0001979  50.0984  88.3209 15.07190854  1307,6922.926,95.542,546.161,543.4209999999998,0.0
52311.0,STARLINK-3750,PAYLOAD,2022-08-11 14:00:01,15.0721664,0.0002083,53.2131,192.2572,46.9994,110.6623,-0.0020404,-0.00031218,0.0,0 STARLINK-3750,1 52311U 22041BC  22223.58334491 -.00031218  00000-0 -20404-2 0  9998,2 52311  53.2131 192.2572 0002083  46.9994 110.6623 15.07216640  1306,6922.847,95.54,546.154,543.27,0.0
52311.0,STARLINK-3750,PAYLOAD,2022-08-11 22:00:00,15.072051,0.0002021999999999,53.2135,190.7638,52.5728,114.7178,0.00086446,0.000129,0.0,0 STARLINK-3750,1 52311U 22041BC  22223.91667824  .00012900  00000-0  86446-3 0  9998,2 52311  53.2135 190.7638 0002022  52.5728 114.7178 15.07205100 18731,6922.882,95.541,546.1469999999998,543.347,0.0
52311.0,STARLINK-3750,PAYLOAD,2022-08-12 14:00:01,15.07239753,0.0002092,53.2132,187.7791,48.8815,137.6899,-0.0028689,-0.00043729,0.0,0 STARLINK-3750,1 52311U 22041BC  22224.58334491 -.00043729  00000-0 -28689-2 0  9992,2 52311  53.2132 187.7791 0002092  48.8815 137.6899 15.07239753  1306,6922.776,95.539,546.089,543.193,0.0
52311.0,STARLINK-3750,PAYLOAD,2022-08-12 20:00:01,15.07205386,0.0001998,53.2133,186.6587,52.2752,51.6044,0.00012214,1.576e-05,0.0,0 STARLINK-3750,1 52311U 22041BC  22224.83335648  .00001576  00000-0  12214-3 0  9995,2 52311  53.2133 186.6587 0001998  52.2752  51.6044 15.07205386 18873,6922.880999999999,95.541,546.129,543.363,0.0
52311.0,STARLINK-3750,PAYLOAD,2022-08-12 22:00:01,15.07209209,0.0002015,53.2136,186.2859,52.8187,143.4675,-0.00029284,-4.739e-05,0.0,0 STARLINK-3750,1 52311U 22041BC  22224.91668981 -.00004739  00000-0 -29284-3 0  9994,2 52311  53.2136 186.2859 0002015  52.8187 143.4675 15.07209209  1301,6922.87,95.541,546.13,543.34,0.0
52311.0,STARLINK-3750,PAYLOAD,2022-08-13 14:00:01,15.07194764,0.0002014,53.2136,183.3011,46.2601,169.2135,-0.0022660999999999,-0.00034602,0.0,0 STARLINK-3750,1 52311U 22041BC  22225.58334491 -.00034602  00000-0 -22661-2 0  9997,2 52311  53.2136 183.3011 0002014  46.2601 169.2135 15.07194764  1302,6922.9140000000025,95.542,546.173,543.385,0.0
52311.0,STARLINK-3750,PAYLOAD,2022-08-13 22:00:00,15.07186929,0.0002017,53.2139,181.8081,51.3004,173.7727,0.0002852,4.058e-05,0.0,0 STARLINK-3750,1 52311U 22041BC  22225.91667824  .00004058  00000-0  28520-3 0  9994,2 52311  53.2139 181.8081 0002017  51.3004 173.7727 15.07186929  1303,6922.938,95.542,546.1990000000002,543.406,0.0
52311.0,STARLINK-3750,PAYLOAD,2022-08-14 06:00:02,15.07173598,0.0002223,53.2141,180.3172,46.249,188.5087,0.0020838,0.00031551,0.0,0 STARLINK-3750,1 52311U 22041BC  22226.25002315  .00031551  00000-0  20838-2 0  9991,2 52311  53.2141 180.3172 0002223  46.2490 188.5087 15.07173598 19087,6922.979,95.543,546.383,543.305,0.0
52311.0,STARLINK-3750,PAYLOAD,2022-08-14 14:00:01,15.07208028,0.0002104,53.2142,178.8232,47.9222,196.3825,-0.0012367,-0.00019061,0.0,0 STARLINK-3750,1 52311U 22041BC  22226.58334491 -.00019061  00000-0 -12367-2 0  9992,2 52311  53.2142 178.8232 0002104  47.9222 196.3825 15.07208028  1306,6922.873000000001,95.541,546.195,543.2819999999998,0.0
52311.0,STARLINK-3750,PAYLOAD,2022-08-14 22:00:00,15.0721259,0.0002114,53.2145,177.3303,52.4227,201.5037,0.00016945,2.297e-05,0.0,0 STARLINK-3750,1 52311U 22041BC  22226.91667824  .00002297  00000-0  16945-3 0  9996,2 52311  53.2145 177.3303 0002114  52.4227 201.5037 15.07212590  1302,6922.859,95.541,546.188,543.261,0.0
52311.0,STARLINK-3750,PAYLOAD,2022-08-15 06:00:00,15.07196014,0.0002299,53.2145,175.8393,47.4279,216.1425,0.0019852,0.00030057,0.0,0 STARLINK-3750,1 52311U 22041BC  22227.25001157  .00030057  00000-0  19852-2 0  9999,2 52311  53.2145 175.8393 0002299  47.4279 216.1425 15.07196014 19235,6922.91,95.542,546.367,543.183,0.0
52311.0,STARLINK-3750,PAYLOAD,2022-08-15 14:00:01,15.07217131,0.0002118,53.2146,174.3452,48.8148,224.3905,-0.0027943,-0.0004258,0.0,0 STARLINK-3750,1 52311U 22041BC  22227.58334491 -.00042580  00000-0 -27943-2 0  9991,2 52311  53.2146 174.3452 0002118  48.8148 224.3905 15.07217131  1303,6922.845,95.54,546.177,543.244,0.0
52311.0,STARLINK-3750,PAYLOAD,2022-08-15 22:00:00,15.07206297,0.0002092,53.2148,172.8525,51.9662,230.8595,-0.00022313,-3.679e-05,0.0,0 STARLINK-3750,1 52311U 22041BC  22227.91667824 -.00003679  00000-0 -22313-3 0  9990,2 52311  53.2148 172.8525 0002092  51.9662 230.8595 15.07206297  1304,6922.878000000002,95.541,546.192,543.295,0.0
52311.0,STARLINK-3750,PAYLOAD,2022-08-16 14:00:01,15.07211522,0.0002118,53.2147,169.8673,50.4647,251.6221,-0.00029211,-4.728e-05,0.0,0 STARLINK-3750,1 52311U 22041BC  22228.58334491 -.00004728  00000-0 -29211-3 0  9995,2 52311  53.2147 169.8673 0002118  50.4647 251.6221 15.07211522  1303,6922.861999999999,95.541,546.194,543.261,0.0
52311.0,STARLINK-3750,PAYLOAD,2022-08-16 22:00:00,15.07240671,0.0002066999999999,53.2148,168.3747,53.0386,258.6779,-0.0030757,-0.00046842,0.0,0 STARLINK-3750,1 52311U 22041BC  22228.91667824 -.00046842  00000-0 -30757-2 0  9990,2 52311  53.2148 168.3747 0002067  53.0386 258.6779 15.07240671  1304,6922.773,95.539,546.069,543.207,0.0
52311.0,STARLINK-3750,PAYLOAD,2022-08-17 06:00:02,15.07178645,0.0002191999999999,53.2145,166.8835,47.398,274.0419,0.0026026,0.00039528,0.0,0 STARLINK-3750,1 52311U 22041BC  22229.25002315  .00039528  00000-0  26026-2 0  9991,2 52311  53.2145 166.8835 0002192  47.3980 274.0419 15.07178645 19535,6922.9630000000025,95.543,546.346,543.311,0.0
52311.0,STARLINK-3750,PAYLOAD,2022-08-17 16:00:00,15.07179998,0.0001972,53.2142,165.0159,52.2857,11.1206,0.0031736,0.00048324,0.0,0 STARLINK-3750,1 52311U 22041BC  22229.66667824  .00048324  00000-0  31736-2 0  9996,2 52311  53.2142 165.0159 0001972  52.2857  11.1206 15.07179998  1307,6922.959,95.543,546.189,543.4590000000002,0.0
52311.0,STARLINK-3750,PAYLOAD,2022-08-18 08:00:01,15.07190749,0.0002079,53.2136,162.0322,46.5855,36.0898,0.0020785,0.00031485,0.0,0 STARLINK-3750,1 52311U 22041BC  22230.33334491  .00031485  00000-0  20785-2 0  9995,2 52311  53.2136 162.0322 0002079  46.5855  36.0898 15.07190749 19705,6922.926,95.542,546.23,543.352,0.0
52311.0,STARLINK-3750,PAYLOAD,2022-08-18 14:00:01,15.07197944,0.0001933,53.2137,160.9113,52.4279,307.4705,0.0015178,0.00022891,0.0,0 STARLINK-3750,1 52311U 22041BC  22230.58334491  .00022891  00000-0  15178-2 0  9993,2 52311  53.2137 160.9113 0001933  52.4279 307.4705 15.07197944  1308,6922.904,95.542,546.107,543.431,0.0
